HIMAWARI-8              
1 40267U 14060A   24026.49683112 -.00000274  00000+0  00000+0 0  9990
2 40267   0.0521 230.0972 0001022  78.9140 135.7486  1.00268971 34113
